NORAD_CAT_ID,OBJECT_NAME,OBJECT_TYPE,EPOCH,MEAN_MOTION,ECCENTRICITY,INCLINATION,RA_OF_ASC_NODE,ARG_OF_PERICENTER,MEAN_ANOMALY,BSTAR,MEAN_MOTION_DOT,MEAN_MOTION_DDOT,TLE_LINE0,TLE_LINE1,TLE_LINE2,SEMIMAJOR_AXIS,PERIOD,APOGEE,PERIGEE,DECAYED
53835.0,STARLINK-4783,PAYLOAD,2023-08-07 07:21:18,15.0883661,0.00012,53.2153,227.9009,84.2553,275.8576,-1.8699e-05,-5.85e-06,0.0,0 STARLINK-4783,1 53835U 22114T   23219.30646357 -.00000585  00000-0 -18699-4 0  9992,2 53835  53.2153 227.9009 0001200  84.2553 275.8576 15.08836610 49577,6917.891,95.438,540.586,538.926,0.0
53835.0,STARLINK-4783,PAYLOAD,2023-08-08 07:12:05,15.08841241,0.0001186,53.2155,223.44,83.226,276.8867,0.00010279,1.348e-05,0.0,0 STARLINK-4783,1 53835U 22114T   23220.30005821  .00001348  00000-0  10279-3 0  9990,2 53835  53.2155 223.4400 0001186  83.2260 276.8867 15.08841241 49729,6917.877,95.437,540.562,538.921,0.0
53835.0,STARLINK-4783,PAYLOAD,2023-08-09 00:41:19,15.0883851,0.0001222,53.2154,220.1686,82.2498,277.8632,7.0644e-05,8.37e-06,0.0,0 STARLINK-4783,1 53835U 22114T   23221.02870197  .00000837  00000-0  70644-4 0  9991,2 53835  53.2154 220.1686 0001222  82.2498 277.8632 15.08838510 49839,6917.885,95.438,540.595,538.905,0.0
53835.0,STARLINK-4783,PAYLOAD,2023-08-09 16:35:12,15.08830148,0.0001239,53.2156,217.1955,82.2278,277.8855,-4.0875e-05,-9.38e-06,0.0,0 STARLINK-4783,1 53835U 22114T   23221.69111155 -.00000938  00000-0 -40875-4 0  9993,2 53835  53.2156 217.1955 0001239  82.2278 277.8855 15.08830148 49937,6917.911,95.438,540.633,538.918,0.0
53835.0,STARLINK-4783,PAYLOAD,2023-08-10 00:32:12,15.08781798,0.0001424,53.2157,215.7086,80.2076,279.9077,-0.00046493,-7.668e-05,0.0,0 STARLINK-4783,1 53835U 22114T   23222.02236286 -.00007668  00000-0 -46493-3 0  9992,2 53835  53.2157 215.7086 0001424  80.2076 279.9077 15.08781798 49987,6918.058,95.441,540.908,538.938,0.0
53835.0,STARLINK-4783,PAYLOAD,2023-08-10 08:29:03,15.08836457,0.000129,53.2156,214.2213,92.0062,268.1078,5.0638e-06,-2.07e-06,0.0,0 STARLINK-4783,1 53835U 22114T   23222.35351799 -.00000207  00000-0  50638-5 0  9994,2 53835  53.2156 214.2213 0001290  92.0062 268.1078 15.08836457 50031,6917.891,95.438,540.649,538.864,0.0
53835.0,STARLINK-4783,PAYLOAD,2023-08-11 00:22:54,15.0884228,0.0001225,53.2154,211.2471,90.3015,269.8117,9.8965e-05,1.288e-05,0.0,0 STARLINK-4783,1 53835U 22114T   23223.01591280  .00001288  00000-0  98965-4 0  9992,2 53835  53.2154 211.2471 0001225  90.3015 269.8117 15.08842280 50133,6917.873,95.437,540.586,538.891,0.0
53835.0,STARLINK-4783,PAYLOAD,2023-08-12 08:10:37,15.08853657,0.0001242,53.2156,205.2991,85.3505,274.7629,0.00012897,1.766e-05,0.0,0 STARLINK-4783,1 53835U 22114T   23224.34070850  .00001766  00000-0  12897-3 0  9994,2 53835  53.2156 205.2991 0001242  85.3505 274.7629 15.08853657 50337,6917.839,95.437,540.563,538.844,0.0
53835.0,STARLINK-4783,PAYLOAD,2023-08-13 08:01:23,15.08852659,0.0001351,53.2163,200.8392,83.7928,276.3218,1.8148e-05,1e-08,0.0,0 STARLINK-4783,1 53835U 22114T   23225.33430482  .00000001  00000-0  18148-4 0  9992,2 53835  53.2163 200.8392 0001351  83.7928 276.3218 15.08852659 50482,6917.842,95.437,540.641,538.772,0.0
53835.0,STARLINK-4783,PAYLOAD,2023-08-13 22:19:52,15.08835537,0.0001392,53.2163,198.1626,88.7358,271.3793,1.7469e-05,-1e-07,0.0,0 STARLINK-4783,1 53835U 22114T   23225.93047201 -.00000010  00000-0  17469-4 0  9997,2 53835  53.2163 198.1626 0001392  88.7358 271.3793 15.08835537 50577,6917.894,95.438,540.722,538.796,0.0
53835.0,STARLINK-4783,PAYLOAD,2023-08-15 01:21:25,15.08842112,0.0001494,53.2146,193.1065,95.4366,264.6796,-4.6317e-05,-1.025e-05,0.0,0 STARLINK-4783,1 53835U 22114T   23227.05654703 -.00001025  00000-0 -46317-4 0  9995,2 53835  53.2146 193.1065 0001494  95.4366 264.6796 15.08842112 50741,6917.874,95.437,540.772,538.705,0.0
53835.0,STARLINK-4783,PAYLOAD,2023-08-16 05:58:21,15.08843356,0.0001362,53.2169,187.755,91.0872,269.0276,7.9492e-05,9.78e-06,0.0,0 STARLINK-4783,1 53835U 22114T   23228.24886240  .00000978  00000-0  79492-4 0  9994,2 53835  53.2169 187.7550 0001362  91.0872 269.0276 15.08843356 50925,6917.87,95.437,540.677,538.793,0.0
53835.0,STARLINK-4783,PAYLOAD,2023-08-16 21:52:13,15.08833764,0.0001557,53.2176,184.7837,96.0945,264.0225,6.6442e-06,-1.82e-06,0.0,0 STARLINK-4783,1 53835U 22114T   23228.91127249 -.00000182  00000-0  66442-5 0  9995,2 53835  53.2176 184.7837 0001557  96.0945 264.0225 15.08833764 51023,6917.899,95.438,540.842,538.687,0.0
53835.0,STARLINK-4783,PAYLOAD,2023-08-17 07:24:32,15.08838434,0.0001501,53.2172,182.9975,91.5359,268.5805,3.381e-05,2.5e-06,0.0,0 STARLINK-4783,1 53835U 22114T   23229.30870853  .00000250  00000-0  33810-4 0  9992,2 53835  53.2172 182.9975 0001501  91.5359 268.5805 15.08838434 51088,6917.885,95.438,540.789,538.712,0.0
53835.0,STARLINK-4783,PAYLOAD,2023-08-18 07:15:18,15.08850144,0.0001316,53.2165,178.5367,91.6111,268.5032,4.3711e-05,4.08e-06,0.0,0 STARLINK-4783,1 53835U 22114T   23230.30230256  .00000408  00000-0  43711-4 0  9997,2 53835  53.2165 178.5367 0001316  91.6111 268.5032 15.08850144 51238,6917.849,95.437,540.625,538.804,0.0
53835.0,STARLINK-4783,PAYLOAD,2023-08-18 13:36:51,15.08843399,0.0001499,53.2176,177.3461,85.3415,274.7748,-2.852e-05,-7.42e-06,0.0,0 STARLINK-4783,1 53835U 22114T   23230.56726846 -.00000742  00000-0 -28520-4 0  9994,2 53835  53.2176 177.3461 0001499  85.3415 274.7748 15.08843399 51272,6917.87,95.437,540.772,538.698,0.0
53835.0,STARLINK-4783,PAYLOAD,2023-08-19 03:55:20,15.0883412,0.0001567,53.2165,174.6705,80.3581,279.7588,1.1901e-05,-9.9e-07,0.0,0 STARLINK-4783,1 53835U 22114T   23231.16343647 -.00000099  00000-0  11901-4 0  9994,2 53835  53.2165 174.6705 0001567  80.3581 279.7588 15.08834120 51365,6917.898,95.438,540.847,538.679,0.0
53835.0,STARLINK-4783,PAYLOAD,2023-08-20 05:21:30,15.08841926,0.0001358,53.2167,169.9128,90.9568,269.158,-5.875e-06,-3.81e-06,0.0,0 STARLINK-4783,1 53835U 22114T   23232.22327372 -.00000381  00000-0 -58750-5 0  9998,2 53835  53.2167 169.9128 0001358  90.9568 269.1580 15.08841926 51528,6917.875,95.437,540.679,538.8,0.0
53835.0,STARLINK-4783,PAYLOAD,2023-08-21 02:01:31,15.08826488,0.0001255,53.2166,166.0472,91.7089,268.4047,0.00030549,4.576e-05,0.0,0 STARLINK-4783,1 53835U 22114T   23233.08439553  .00004576  00000-0  30549-3 0  9990,2 53835  53.2166 166.0472 0001255  91.7089 268.4047 15.08826488 51650,6917.922,95.438,540.655,538.918,0.0
53835.0,STARLINK-4783,PAYLOAD,2023-08-21 05:12:17,15.08848835,0.0001419,53.2169,165.4508,90.33,269.7855,0.00013122,1.802e-05,0.0,0 STARLINK-4783,1 53835U 22114T   23233.21686489  .00001802  00000-0  13122-3 0  9994,2 53835  53.2169 165.4508 0001419  90.3300 269.7855 15.08848835 51672,6917.853,95.437,540.7,538.737,0.0
53835.0,STARLINK-4783,PAYLOAD,2023-08-21 19:30:46,15.08836059,0.0001298,53.2171,162.7752,90.9924,269.1217,3.3276e-05,2.42e-06,0.0,0 STARLINK-4783,1 53835U 22114T   23233.81303591  .00000242  00000-0  33276-4 0  9990,2 53835  53.2171 162.7752 0001298  90.9924 269.1217 15.08836059 51760,6917.892,95.438,540.655,538.859,0.0
53835.0,STARLINK-4783,PAYLOAD,2023-08-22 01:52:18,15.08843961,0.0001567,53.2169,161.5866,104.4537,255.6629,2.0245e-05,3.4e-07,0.0,0 STARLINK-4783,1 53835U 22114T   23234.07799127  .00000034  00000-0  20245-4 0  9994,2 53835  53.2169 161.5866 0001567 104.4537 255.6629 15.08843961 51802,6917.868,95.437,540.817,538.649,0.0
53835.0,STARLINK-4783,PAYLOAD,2023-08-23 01:43:05,15.08841428,0.0001468,53.2171,157.1269,107.9296,252.1856,-6.8411e-05,-1.377e-05,0.0,0 STARLINK-4783,1 53835U 22114T   23235.07159638 -.00001377  00000-0 -68411-4 0  9992,2 53835  53.2171 157.1269 0001468 107.9296 252.1856 15.08841428 51959,6917.876,95.437,540.757,538.725,0.0
53835.0,STARLINK-4783,PAYLOAD,2023-08-24 04:44:39,15.0885084,0.0001618,53.2175,152.0703,102.1901,257.9272,-0.00011351,-2.095e-05,0.0,0 STARLINK-4783,1 53835U 22114T   23236.19767424 -.00002095  00000-0 -11351-3 0  9992,2 53835  53.2175 152.0703 0001618 102.1901 257.9272 15.08850840 52669,6917.847,95.437,540.832,538.593,0.0
53835.0,STARLINK-4783,PAYLOAD,2023-08-24 23:49:17,15.08838558,0.0001369,53.2176,148.5017,86.1658,273.9491,7.9863e-05,9.83e-06,0.0,0 STARLINK-4783,1 53835U 22114T   23236.99255963  .00000983  00000-0  79863-4 0  9995,2 53835  53.2176 148.5017 0001369  86.1658 273.9491 15.08838558 52248,6917.885,95.438,540.697,538.803,0.0
53835.0,STARLINK-4783,PAYLOAD,2023-08-25 03:00:03,15.08841826,0.0001335,53.2177,147.9074,86.0206,274.0939,8.4344e-05,1.055e-05,0.0,0 STARLINK-4783,1 53835U 22114T   23237.12503740  .00001055  00000-0  84344-4 0  9991,2 53835  53.2177 147.9074 0001335  86.0206 274.0939 15.08841826 52809,6917.875,95.437,540.663,538.816,0.0
53835.0,STARLINK-4783,PAYLOAD,2023-08-26 02:50:50,15.08815894,0.0001555,53.2181,143.4473,85.322,274.795,0.0004005,6.088e-05,0.0,0 STARLINK-4783,1 53835U 22114T   23238.11864536  .00006088  00000-0  40050-3 0  9990,2 53835  53.2181 143.4473 0001555  85.3220 274.7950 15.08815894 52413,6917.954,95.439,540.895,538.743,0.0
53835.0,STARLINK-4783,PAYLOAD,2023-08-27 02:41:37,15.08824692,0.0001479,53.2171,138.9859,92.5662,267.5499,0.00028907,4.314e-05,0.0,0 STARLINK-4783,1 53835U 22114T   23239.11224177  .00004314  00000-0  28907-3 0  9999,2 53835  53.2171 138.9859 0001479  92.5662 267.5499 15.08824692 52564,6917.927,95.439,540.815,538.769,0.0
53835.0,STARLINK-4783,PAYLOAD,2023-08-28 02:32:24,15.08842843,0.0001583,53.2174,134.5262,77.0548,283.0621,5.8715e-05,6.47e-06,0.0,0 STARLINK-4783,1 53835U 22114T   23240.10583899  .00000647  00000-0  58715-4 0  9995,2 53835  53.2174 134.5262 0001583  77.0548 283.0621 15.08842843 52719,6917.872,95.437,540.832,538.642,0.0
53835.0,STARLINK-4783,PAYLOAD,2023-08-28 10:29:19,15.0884423,0.0001398,53.2169,133.0395,84.3095,275.8056,7.2591e-05,8.68e-06,0.0,0 STARLINK-4783,1 53835U 22114T   23240.43703609  .00000868  00000-0  72591-4 0  9997,2 53835  53.2169 133.0395 0001398  84.3095 275.8056 15.08844230 53305,6917.867,95.437,540.7,538.765,0.0
